{
  "norad_id": 62715,
  "name": "CONNECTA IOT-7",
  "history": [
    {
      "epoch": "2026-03-28T19:18:24.968160",
      "apogee_km": 587.4161564331544,
      "perigee_km": 583.4724018115357,
      "latitude_deg": 72.61725958440645,
      "longitude_deg": 168.72774240002036,
      "semi_major_axis_km": 6963.581279122344,
      "eccentricity": 0.00028317,
      "inclination_deg": 97.7105,
      "raan_deg": 168.0456,
      "arg_perigee_deg": 97.9666,
      "mean_anomaly_deg": 262.1876,
      "mean_motion_rev_day": 14.94010977
    },
    {
      "epoch": "2026-03-29T04:57:04.974048",
      "apogee_km": 587.403916137634,
      "perigee_km": 583.4694969934253,
      "latitude_deg": 78.28659381756952,
      "longitude_deg": -152.69447328010574,
      "semi_major_axis_km": 6963.573706565529,
      "eccentricity": 0.0002825,
      "inclination_deg": 97.7105,
      "raan_deg": 168.4401,
      "arg_perigee_deg": 97.2684,
      "mean_anomaly_deg": 262.8857,
      "mean_motion_rev_day": 14.94013414
    }
  ]
}